{"type": "FeatureCollection", "features": [ {"type": "Feature", "properties": {"norad_id": 66601, "name": "STARLINK-35978", "group": "last-30-days", "lat": 28.072812565281644, "lon": -73.75526543846473, "alt_km": 329.7910641343524, "timestamp": "2025-12-02T21:34:00.043626+00:00", "meta": {"OBJECT_NAME": "STARLINK-35978", "OBJECT_ID": "2025-270P", "EPOCH": "2025-12-02T12:00:05.998752", "MEAN_MOTION": 15.80517576, "ECCENTRICITY": 0.0001857, "INCLINATION": 42.9988, "RA_OF_ASC_NODE": 253.7637, "ARG_OF_PERICENTER": 264.2807, "MEAN_ANOMALY": 30.0802, "EPHEMERIS_TYPE": 0, "CLASSIFICATION_TYPE": "U", "NORAD_CAT_ID": 66601, "ELEMENT_SET_NO": 999, "REV_AT_EPOCH": 259, "BSTAR": -0.01005, "MEAN_MOTION_DOT": -0.01743634, "MEAN_MOTION_DDOT": 0}, "tle": {"line1": "1 66601U 25270P   25336.50006943 -.01743634  00000+0 -10050-1 0  9997", "line2": "2 66601  42.9988 253.7637 0001857 264.2807  30.0802 15.80517576  2598"}}, "geometry": {"type": "Point", "coordinates": [-73.75526543846473, 28.072812565281644]}}, {"type": "Feature", "properties": {"norad_id": 66602, "name": "STARLINK-36050", "group": "last-30-days", "lat": 29.239931760152455, "lon": -71.75170287945123, "alt_km": 329.8191544350684, "timestamp": "2025-12-02T21:34:00.043638+00:00", "meta": {"OBJECT_NAME": "STARLINK-36050", "OBJECT_ID": "2025-270Q", "EPOCH": "2025-12-02T12:00:05.998752", "MEAN_MOTION": 15.80498913, "ECCENTRICITY": 0.000177, "INCLINATION": 42.9988, "RA_OF_ASC_NODE": 253.7583, "ARG_OF_PERICENTER": 258.3414, "MEAN_ANOMALY": 38.1786, "EPHEMERIS_TYPE": 0, "CLASSIFICATION_TYPE": "U", "NORAD_CAT_ID": 66602, "ELEMENT_SET_NO": 999, "REV_AT_EPOCH": 265, "BSTAR": -0.010216, "MEAN_MOTION_DOT": -0.01767563, "MEAN_MOTION_DDOT": 0}, "tle": {"line1": "1 66602U 25270Q   25336.50006943 -.01767563  00000+0 -10216-1 0  9999", "line2": "2 66602  42.9988 253.7583 0001770 258.3414  38.1786 15.80498913  2651"}}, "geometry": {"type": "Point", "coordinates": [-71.75170287945123, 29.239931760152455]}}, {"type": "Feature", "properties": {"norad_id": 66603, "name": "STARLINK-36048", "group": "last-30-days", "lat": 30.396720283874238, "lon": -69.66525094037563, "alt_km": 329.76664184335823, "timestamp": "2025-12-02T21:34:00.043648+00:00", "meta": {"OBJECT_NAME": "STARLINK-36048", "OBJECT_ID": "2025-270R", "EPOCH": "2025-12-02T12:00:05.998752", "MEAN_MOTION": 15.80469931, "ECCENTRICITY": 0.000175, "INCLINATION": 42.9991, "RA_OF_ASC_NODE": 253.7527, "ARG_OF_PERICENTER": 259.9205, "MEAN_ANOMALY": 38.8065, "EPHEMERIS_TYPE": 0, "CLASSIFICATION_TYPE": "U", "NORAD_CAT_ID": 66603, "ELEMENT_SET_NO": 999, "REV_AT_EPOCH": 265, "BSTAR": -0.010372, "MEAN_MOTION_DOT": -0.01789087, "MEAN_MOTION_DDOT": 0}, "tle": {"line1": "1 66603U 25270R   25336.50006943 -.01789087  00000+0 -10372-1 0  9998", "line2": "2 66603  42.9991 253.7527 0001750 259.9205  38.8065 15.80469931  2652"}}, "geometry": {"type": "Point", "coordinates": [-69.66525094037563, 30.396720283874238]}}, {"type": "Feature", "properties": {"norad_id": 66604, "name": "STARLINK-35977", "group": "last-30-days", "lat": 31.382940844483503, "lon": -67.79500508757712, "alt_km": 329.6690361012479, "timestamp": "2025-12-02T21:34:00.043658+00:00", "meta": {"OBJECT_NAME": "STARLINK-35977", "OBJECT_ID": "2025-270S", "EPOCH": "2025-12-02T12:00:05.998752", "MEAN_MOTION": 15.80486598, "ECCENTRICITY": 0.000182, "INCLINATION": 42.9992, "RA_OF_ASC_NODE": 253.7481, "ARG_OF_PERICENTER": 257.7588, "MEAN_ANOMALY": 42.8324, "EPHEMERIS_TYPE": 0, "CLASSIFICATION_TYPE": "U", "NORAD_CAT_ID": 66604, "ELEMENT_SET_NO": 999, "REV_AT_EPOCH": 275, "BSTAR": -0.010383, "MEAN_MOTION_DOT": -0.01792114, "MEAN_MOTION_DDOT": 0}, "tle": {"line1": "1 66604U 25270S   25336.50006943 -.01792114  00000+0 -10383-1 0  9996", "line2": "2 66604  42.9992 253.7481 0001820 257.7588  42.8324 15.80486598  2753"}}, "geometry": {"type": "Point", "coordinates": [-67.79500508757712, 31.382940844483503]}}, {"type": "Feature", "properties": {"norad_id": 66605, "name": "STARLINK-36052", "group": "last-30-days", "lat": 32.35726268429732, "lon": -65.85270685007599, "alt_km": 329.3918967344707, "timestamp": "2025-12-02T21:34:00.043669+00:00", "meta": {"OBJECT_NAME": "STARLINK-36052", "OBJECT_ID": "2025-270T", "EPOCH": "2025-12-02T12:00:05.998752", "MEAN_MOTION": 15.80489529, "ECCENTRICITY": 0.0001693, "INCLINATION": 42.9991, "RA_OF_ASC_NODE": 253.7432, "ARG_OF_PERICENTER": 265.267, "MEAN_ANOMALY": 37.2503, "EPHEMERIS_TYPE": 0, "CLASSIFICATION_TYPE": "U", "NORAD_CAT_ID": 66605, "ELEMENT_SET_NO": 999, "REV_AT_EPOCH": 275, "BSTAR": -0.010521, "MEAN_MOTION_DOT": -0.01813075, "MEAN_MOTION_DDOT": 0}, "tle": {"line1": "1 66605U 25270T   25336.50006943 -.01813075  00000+0 -10521-1 0  9991", "line2": "2 66605  42.9991 253.7432 0001693 265.2670  37.2503 15.80489529  2757"}}, "geometry": {"type": "Point", "coordinates": [-65.85270685007599, 32.35726268429732]}}, {"type": "Feature", "properties": {"norad_id": 66606, "name": "STARLINK-36063", "group": "last-30-days", "lat": 34.3157311679295, "lon": -61.60507569924154, "alt_km": 329.4240734949635, "timestamp": "2025-12-02T21:34:00.043687+00:00", "meta": {"OBJECT_NAME": "STARLINK-36063", "OBJECT_ID": "2025-270U", "EPOCH": "2025-12-02T12:00:05.998752", "MEAN_MOTION": 15.8048076, "ECCENTRICITY": 0.0001953, "INCLINATION": 42.9992, "RA_OF_ASC_NODE": 253.7329, "ARG_OF_PERICENTER": 259.182, "MEAN_ANOMALY": 47.4101, "EPHEMERIS_TYPE": 0, "CLASSIFICATION_TYPE": "U", "NORAD_CAT_ID": 66606, "ELEMENT_SET_NO": 999, "REV_AT_EPOCH": 275, "BSTAR": -0.010564, "MEAN_MOTION_DOT": -0.01819227, "MEAN_MOTION_DDOT": 0}, "tle": {"line1": "1 66606U 25270U   25336.50006943 -.01819227  00000+0 -10564-1 0  9994", "line2": "2 66606  42.9992 253.7329 0001953 259.1820  47.4101 15.80480760  2757"}}, "geometry": {"type": "Point", "coordinates": [-61.60507569924154, 34.3157311679295]}}, {"type": "Feature", "properties": {"norad_id": 66607, "name": "STARLINK-35993", "group": "last-30-days", "lat": 33.3998635280255, "lon": -63.65466941641145, "alt_km": 329.461942559592, "timestamp": "2025-12-02T21:34:00.043697+00:00", "meta": {"OBJECT_NAME": "STARLINK-35993", "OBJECT_ID": "2025-270V", "EPOCH": "2025-12-02T12:00:05.998752", "MEAN_MOTION": 15.80463961, "ECCENTRICITY": 0.0001768, "INCLINATION": 42.9992, "RA_OF_ASC_NODE": 253.7379, "ARG_OF_PERICENTER": 256.4363, "MEAN_ANOMALY": 48.2336, "EPHEMERIS_TYPE": 0, "CLASSIFICATION_TYPE": "U", "NORAD_CAT_ID": 66607, "ELEMENT_SET_NO": 999, "REV_AT_EPOCH": 265, "BSTAR": -0.010444, "MEAN_MOTION_DOT": -0.01799693, "MEAN_MOTION_DDOT": 0}, "tle": {"line1": "1 66607U 25270V   25336.50006943 -.01799693  00000+0 -10444-1 0  9996", "line2": "2 66607  42.9992 253.7379 0001768 256.4363  48.2336 15.80463961  2651"}}, "geometry": {"type": "Point", "coordinates": [-63.65466941641145, 33.3998635280255]}}, {"type": "Feature", "properties": {"norad_id": 66608, "name": "STARLINK-36036", "group": "last-30-days", "lat": 35.19426244144781, "lon": -59.51637192252959, "alt_km": 329.1040772469578, "timestamp": "2025-12-02T21:34:00.043707+00:00", "meta": {"OBJECT_NAME": "STARLINK-36036", "OBJECT_ID": "2025-270W", "EPOCH": "2025-12-02T12:00:05.998752", "MEAN_MOTION": 15.80482231, "ECCENTRICITY": 0.0001672, "INCLINATION": 42.9993, "RA_OF_ASC_NODE": 253.7284, "ARG_OF_PERICENTER": 259.3724, "MEAN_ANOMALY": 49.1445, "EPHEMERIS_TYPE": 0, "CLASSIFICATION_TYPE": "U", "NORAD_CAT_ID": 66608, "ELEMENT_SET_NO": 999, "REV_AT_EPOCH": 259, "BSTAR": -0.010527, "MEAN_MOTION_DOT": -0.01813381, "MEAN_MOTION_DDOT": 0}, "tle": {"line1": "1 66608U 25270W   25336.50006943 -.01813381  00000+0 -10527-1 0  9990", "line2": "2 66608  42.9993 253.7284 0001672 259.3724  49.1445 15.80482231  2590"}}, "geometry": {"type": "Point", "coordinates": [-59.51637192252959, 35.19426244144781]}}, {"type": "Feature", "properties": {"norad_id": 66609, "name": "STARLINK-36034", "group": "last-30-days", "lat": 36.03032526828671, "lon": -57.39762369285247, "alt_km": 328.9448675732847, "timestamp": "2025-12-02T21:34:00.043717+00:00", "meta": {"OBJECT_NAME": "STARLINK-36034", "OBJECT_ID": "2025-270X", "EPOCH": "2025-12-02T12:00:05.998752", "MEAN_MOTION": 15.80499154, "ECCENTRICITY": 0.0001679, "INCLINATION": 42.9992, "RA_OF_ASC_NODE": 253.7236, "ARG_OF_PERICENTER": 261.7784, "MEAN_ANOMALY": 48.6364, "EPHEMERIS_TYPE": 0, "CLASSIFICATION_TYPE": "U", "NORAD_CAT_ID": 66609, "ELEMENT_SET_NO": 999, "REV_AT_EPOCH": 259, "BSTAR": -0.010583, "MEAN_MOTION_DOT": -0.01823116, "MEAN_MOTION_DDOT": 0}, "tle": {"line1": "1 66609U 25270X   25336.50006943 -.01823116  00000+0 -10583-1 0  9990", "line2": "2 66609  42.9992 253.7236 0001679 261.7784  48.6364 15.80499154  2593"}}, "geometry": {"type": "Point", "coordinates": [-57.39762369285247, 36.03032526828671]}}, {"type": "Feature", "properties": {"norad_id": 66610, "name": "STARLINK-35680", "group": "last-30-days", "lat": 36.856651500522865, "lon": -55.154587486066596, "alt_km": 328.95837529381424, "timestamp": "2025-12-02T21:34:00.043730+00:00", "meta": {"OBJECT_NAME": "STARLINK-35680", "OBJECT_ID": "2025-270Y", "EPOCH": "2025-12-02T12:00:05.998752", "MEAN_MOTION": 15.80496796, "ECCENTRICITY": 0.0001775, "INCLINATION": 42.9991, "RA_OF_ASC_NODE": 253.7182, "ARG_OF_PERICENTER": 258.6137, "MEAN_ANOMALY": 53.798, "EPHEMERIS_TYPE": 0, "CLASSIFICATION_TYPE": "U", "NORAD_CAT_ID": 66610, "ELEMENT_SET_NO": 999, "REV_AT_EPOCH": 286, "BSTAR": -0.010638, "MEAN_MOTION_DOT": -0.01831332, "MEAN_MOTION_DDOT": 0}, "tle": {"line1": "1 66610U 25270Y   25336.50006943 -.01831332  00000+0 -10638-1 0  9992", "line2": "2 66610  42.9991 253.7182 0001775 258.6137  53.7980 15.80496796  2868"}}, "geometry": {"type": "Point", "coordinates": [-55.154587486066596, 36.856651500522865]}}]}